ONEWEB-0018             
1 45434U 20020L   25252.97986874  .00000183  00000+0  47967-3 0  9995
2 45434  87.8776  76.8870 0001632  86.8838 273.2477 13.11415624265906
ONEWEB-0083             
1 45435U 20020M   25252.97055152  .00000564  00000+0  15554-2 0  9991
2 45435  87.8781  76.8780 0001827  83.9209 276.2127 13.11414768265946
ONEWEB-0095             
1 45436U 20020N   25252.96136633  .00000598  00000+0  16505-2 0  9999
2 45436  87.8771  76.8993 0002287 102.2687 257.8697 13.11418717265943
ONEWEB-0092             
1 45437U 20020P   25253.46730800 -.00000632  00000+0 -18204-2 0  9991
2 45437  87.8781  76.7895 0001904  92.1539 267.9807 13.11416940266125
ONEWEB-0085             
1 45438U 20020Q   25252.96971296  .00000545  00000+0  15007-2 0  9991
2 45438  87.8774  76.9031 0001704  88.6322 271.5001 13.11415986265945
ONEWEB-0096             
1 45439U 20020R   25253.20028797  .00000462  00000+0  12682-2 0  9993
2 45439  87.8791  76.8257 0001662  82.1629 277.9688 13.11416326265968
ONEWEB-0037             
1 45440U 20020S   25252.87559885  .00000355  00000+0  96547-3 0  9998
2 45440  87.8794  76.8559 0001767  89.4798 270.6532 13.11417810265957
ONEWEB-0042             
1 45441U 20020T   25252.96107311  .00000642  00000+0  17760-2 0  9990
2 45441  87.8780  76.8795 0001815  86.4908 273.6427 13.11417897265938
